"{\n    \"CCSDS_OMM_VERS\": \"2.0\",\n    \"COMMENT\": \"GENERATED VIA SPACE-TRACK.ORG API\",\n    \"CREATION_DATE\": \"2025-08-30T03:38:48\",\n    \"ORIGINATOR\": \"18 SPCS\",\n    \"OBJECT_NAME\": \"BEIDOU 5\",\n    \"OBJECT_ID\": \"2010-036A\",\n    \"CENTER_NAME\": \"EARTH\",\n    \"REF_FRAME\": \"TEME\",\n    \"TIME_SYSTEM\": \"UTC\",\n    \"MEAN_ELEMENT_THEORY\": \"SGP4\",\n    \"EPOCH\": \"2025-08-29T18:41:02.432832\",\n    \"MEAN_MOTION\": \"1.0025591007\",\n    \"ECCENTRICITY\": \"0.0048464745\",\n    \"INCLINATION\": \"54.27963\",\n    \"RA_OF_ASC_NODE\": \"165.60146\",\n    \"ARG_OF_PERICENTER\": \"216.77746\",\n    \"MEAN_ANOMALY\": \"341.80213\",\n    \"EPHEMERIS_TYPE\": \"0\",\n    \"CLASSIFICATION_TYPE\": \"U\",\n    \"NORAD_CAT_ID\": \"36828\",\n    \"ELEMENT_SET_NO\": \"999\",\n    \"REV_AT_EPOCH\": \"5517\",\n    \"BSTAR\": \"0\",\n    \"MEAN_MOTION_DOT\": \"-0.000001207254\",\n    \"MEAN_MOTION_DDOT\": \"0\",\n    \"TLE_LINE0\": \"0 BEIDOU 5\",\n    \"TLE_LINE1\": \"1 36828U 10036A   25241.77850038 -.00000121  00000-0  00000-0 0  9994\",\n    \"TLE_LINE2\": \"2 36828  54.2796 165.6015 0048465 216.7775 341.8021  1.00255910 55178\",\n    \"SEMIMAJOR_AXIS\": \"42169.183\",\n    \"PERIOD\": \"1436.324\",\n    \"APOAPSIS\": \"35995.420\",\n    \"PERIAPSIS\": \"35586.676\",\n    \"OBJECT_TYPE\": \"PAYLOAD\",\n    \"DECAYED\": \"0\"\n}"